0 FENGYUN 1C DEB
1 31188U 99025BJS 13286.64537183  .00001557  00000-0  95161-3 0   740
2 31188 099.0876 315.5580 0073949 212.8945 276.3471 14.06116940336365
0 FENGYUN 1C DEB
1 31188U 99025BJS 13288.76543950  .00002052  00000-0  12450-2 0   755
2 31188 099.0860 317.6862 0073851 207.0034 208.1936 14.06124666336667
0 FENGYUN 1C DEB
1 31188U 99025BJS 13290.91338084  .00002063  00000-0  12515-2 0   760
2 31188 099.0856 319.8412 0073962 201.1317 281.0993 14.06132321336962
0 FENGYUN 1C DEB
1 31188U 99025BJS 13293.02976299  .00002215  00000-0  13414-2 0   770
2 31188 099.0858 321.9641 0074040 195.3082 194.3486 14.06140911337264
0 FENGYUN 1C DEB
1 31188U 99025BJS 13295.61064096  .00002079  00000-0  12604-2 0   789
2 31188 099.0858 324.5534 0074096 188.1913 299.0050 14.06153965337621
